<?xml version="1.0" encoding="UTF-8"?>
<ndm xmlns:xsi="http://www.w3.org/2001/XMLSchema-instance" xsi:noNamespaceSchemaLocation="https://sanaregistry.org/r/ndmxml_unqualified/ndmxml-2.0.0-master-2.0.xsd">
<omm id="CCSDS_OMM_VERS" version="2.0">
<header><CREATION_DATE/><ORIGINATOR/></header><body><segment><metadata><OBJECT_NAME>QIANFAN-65</OBJECT_NAME><OBJECT_ID>2025-016L</OBJECT_ID><CENTER_NAME>EARTH</CENTER_NAME><REF_FRAME>TEME</REF_FRAME><TIME_SYSTEM>UTC</TIME_SYSTEM><MEAN_ELEMENT_THEORY>SGP4</MEAN_ELEMENT_THEORY></metadata><data><meanElements><EPOCH>2025-12-09T18:25:52.137120</EPOCH><MEAN_MOTION>13.50983288</MEAN_MOTION><ECCENTRICITY>.0013333</ECCENTRICITY><INCLINATION>88.9760</INCLINATION><RA_OF_ASC_NODE>103.3658</RA_OF_ASC_NODE><ARG_OF_PERICENTER>358.5625</ARG_OF_PERICENTER><MEAN_ANOMALY>1.5486</MEAN_ANOMALY></meanElements><tleParameters><EPHEMERIS_TYPE>0</EPHEMERIS_TYPE><CLASSIFICATION_TYPE>U</CLASSIFICATION_TYPE><NORAD_CAT_ID>62795</NORAD_CAT_ID><ELEMENT_SET_NO>999</ELEMENT_SET_NO><REV_AT_EPOCH>4684</REV_AT_EPOCH><BSTAR>.29975E-3</BSTAR><MEAN_MOTION_DOT>.206E-5</MEAN_MOTION_DOT><MEAN_MOTION_DDOT>0</MEAN_MOTION_DDOT></tleParameters></data></segment></body></omm>
<omm id="CCSDS_OMM_VERS" version="2.0">
<header><CREATION_DATE/><ORIGINATOR/></header><body><segment><metadata><OBJECT_NAME>QIANFAN-66</OBJECT_NAME><OBJECT_ID>2025-016M</OBJECT_ID><CENTER_NAME>EARTH</CENTER_NAME><REF_FRAME>TEME</REF_FRAME><TIME_SYSTEM>UTC</TIME_SYSTEM><MEAN_ELEMENT_THEORY>SGP4</MEAN_ELEMENT_THEORY></metadata><data><meanElements><EPOCH>2025-12-09T19:07:17.463360</EPOCH><MEAN_MOTION>13.50976033</MEAN_MOTION><ECCENTRICITY>.0014314</ECCENTRICITY><INCLINATION>88.9780</INCLINATION><RA_OF_ASC_NODE>103.3324</RA_OF_ASC_NODE><ARG_OF_PERICENTER>353.3187</ARG_OF_PERICENTER><MEAN_ANOMALY>6.7771</MEAN_ANOMALY></meanElements><tleParameters><EPHEMERIS_TYPE>0</EPHEMERIS_TYPE><CLASSIFICATION_TYPE>U</CLASSIFICATION_TYPE><NORAD_CAT_ID>62796</NORAD_CAT_ID><ELEMENT_SET_NO>999</ELEMENT_SET_NO><REV_AT_EPOCH>4689</REV_AT_EPOCH><BSTAR>.28046E-3</BSTAR><MEAN_MOTION_DOT>.193E-5</MEAN_MOTION_DOT><MEAN_MOTION_DDOT>0</MEAN_MOTION_DDOT></tleParameters></data></segment></body></omm>
<omm id="CCSDS_OMM_VERS" version="2.0">
<header><CREATION_DATE/><ORIGINATOR/></header><body><segment><metadata><OBJECT_NAME>QIANFAN-67</OBJECT_NAME><OBJECT_ID>2025-016N</OBJECT_ID><CENTER_NAME>EARTH</CENTER_NAME><REF_FRAME>TEME</REF_FRAME><TIME_SYSTEM>UTC</TIME_SYSTEM><MEAN_ELEMENT_THEORY>SGP4</MEAN_ELEMENT_THEORY></metadata><data><meanElements><EPOCH>2025-12-09T19:13:25.741632</EPOCH><MEAN_MOTION>13.50980177</MEAN_MOTION><ECCENTRICITY>.0014477</ECCENTRICITY><INCLINATION>88.9770</INCLINATION><RA_OF_ASC_NODE>103.3578</RA_OF_ASC_NODE><ARG_OF_PERICENTER>0.5114</ARG_OF_PERICENTER><MEAN_ANOMALY>359.6049</MEAN_ANOMALY></meanElements><tleParameters><EPHEMERIS_TYPE>0</EPHEMERIS_TYPE><CLASSIFICATION_TYPE>U</CLASSIFICATION_TYPE><NORAD_CAT_ID>62797</NORAD_CAT_ID><ELEMENT_SET_NO>999</ELEMENT_SET_NO><REV_AT_EPOCH>4686</REV_AT_EPOCH><BSTAR>.26837E-3</BSTAR><MEAN_MOTION_DOT>.185E-5</MEAN_MOTION_DOT><MEAN_MOTION_DDOT>0</MEAN_MOTION_DDOT></tleParameters></data></segment></body></omm>
<omm id="CCSDS_OMM_VERS" version="2.0">
<header><CREATION_DATE/><ORIGINATOR/></header><body><segment><metadata><OBJECT_NAME>QIANFAN-68</OBJECT_NAME><OBJECT_ID>2025-016P</OBJECT_ID><CENTER_NAME>EARTH</CENTER_NAME><REF_FRAME>TEME</REF_FRAME><TIME_SYSTEM>UTC</TIME_SYSTEM><MEAN_ELEMENT_THEORY>SGP4</MEAN_ELEMENT_THEORY></metadata><data><meanElements><EPOCH>2025-12-09T19:01:28.611264</EPOCH><MEAN_MOTION>13.50982578</MEAN_MOTION><ECCENTRICITY>.0014483</ECCENTRICITY><INCLINATION>88.9774</INCLINATION><RA_OF_ASC_NODE>103.4037</RA_OF_ASC_NODE><ARG_OF_PERICENTER>358.6593</ARG_OF_PERICENTER><MEAN_ANOMALY>1.4517</MEAN_ANOMALY></meanElements><tleParameters><EPHEMERIS_TYPE>0</EPHEMERIS_TYPE><CLASSIFICATION_TYPE>U</CLASSIFICATION_TYPE><NORAD_CAT_ID>62798</NORAD_CAT_ID><ELEMENT_SET_NO>999</ELEMENT_SET_NO><REV_AT_EPOCH>4684</REV_AT_EPOCH><BSTAR>.27365E-3</BSTAR><MEAN_MOTION_DOT>.189E-5</MEAN_MOTION_DOT><MEAN_MOTION_DDOT>0</MEAN_MOTION_DDOT></tleParameters></data></segment></body></omm>
<omm id="CCSDS_OMM_VERS" version="2.0">
<header><CREATION_DATE/><ORIGINATOR/></header><body><segment><metadata><OBJECT_NAME>QIANFAN-69</OBJECT_NAME><OBJECT_ID>2025-016Q</OBJECT_ID><CENTER_NAME>EARTH</CENTER_NAME><REF_FRAME>TEME</REF_FRAME><TIME_SYSTEM>UTC</TIME_SYSTEM><MEAN_ELEMENT_THEORY>SGP4</MEAN_ELEMENT_THEORY></metadata><data><meanElements><EPOCH>2025-12-09T19:25:14.225088</EPOCH><MEAN_MOTION>13.50985465</MEAN_MOTION><ECCENTRICITY>.0015258</ECCENTRICITY><INCLINATION>88.9752</INCLINATION><RA_OF_ASC_NODE>103.2721</RA_OF_ASC_NODE><ARG_OF_PERICENTER>359.4777</ARG_OF_PERICENTER><MEAN_ANOMALY>0.6355</MEAN_ANOMALY></meanElements><tleParameters><EPHEMERIS_TYPE>0</EPHEMERIS_TYPE><CLASSIFICATION_TYPE>U</CLASSIFICATION_TYPE><NORAD_CAT_ID>62799</NORAD_CAT_ID><ELEMENT_SET_NO>999</ELEMENT_SET_NO><REV_AT_EPOCH>4688</REV_AT_EPOCH><BSTAR>.29726E-3</BSTAR><MEAN_MOTION_DOT>.204E-5</MEAN_MOTION_DOT><MEAN_MOTION_DDOT>0</MEAN_MOTION_DDOT></tleParameters></data></segment></body></omm>
<omm id="CCSDS_OMM_VERS" version="2.0">
<header><CREATION_DATE/><ORIGINATOR/></header><body><segment><metadata><OBJECT_NAME>QIANFAN-70</OBJECT_NAME><OBJECT_ID>2025-016R</OBJECT_ID><CENTER_NAME>EARTH</CENTER_NAME><REF_FRAME>TEME</REF_FRAME><TIME_SYSTEM>UTC</TIME_SYSTEM><MEAN_ELEMENT_THEORY>SGP4</MEAN_ELEMENT_THEORY></metadata><data><meanElements><EPOCH>2025-12-09T18:02:12.332832</EPOCH><MEAN_MOTION>13.50976303</MEAN_MOTION><ECCENTRICITY>.001461</ECCENTRICITY><INCLINATION>88.9773</INCLINATION><RA_OF_ASC_NODE>103.4159</RA_OF_ASC_NODE><ARG_OF_PERICENTER>349.7422</ARG_OF_PERICENTER><MEAN_ANOMALY>10.3428</MEAN_ANOMALY></meanElements><tleParameters><EPHEMERIS_TYPE>0</EPHEMERIS_TYPE><CLASSIFICATION_TYPE>U</CLASSIFICATION_TYPE><NORAD_CAT_ID>62800</NORAD_CAT_ID><ELEMENT_SET_NO>999</ELEMENT_SET_NO><REV_AT_EPOCH>4683</REV_AT_EPOCH><BSTAR>.29349E-3</BSTAR><MEAN_MOTION_DOT>.201E-5</MEAN_MOTION_DOT><MEAN_MOTION_DDOT>0</MEAN_MOTION_DDOT></tleParameters></data></segment></body></omm>
<omm id="CCSDS_OMM_VERS" version="2.0">
<header><CREATION_DATE/><ORIGINATOR/></header><body><segment><metadata><OBJECT_NAME>QIANFAN-71</OBJECT_NAME><OBJECT_ID>2025-016S</OBJECT_ID><CENTER_NAME>EARTH</CENTER_NAME><REF_FRAME>TEME</REF_FRAME><TIME_SYSTEM>UTC</TIME_SYSTEM><MEAN_ELEMENT_THEORY>SGP4</MEAN_ELEMENT_THEORY></metadata><data><meanElements><EPOCH>2025-12-09T19:42:53.388864</EPOCH><MEAN_MOTION>13.50983420</MEAN_MOTION><ECCENTRICITY>.0015292</ECCENTRICITY><INCLINATION>88.9767</INCLINATION><RA_OF_ASC_NODE>103.3884</RA_OF_ASC_NODE><ARG_OF_PERICENTER>3.0600</ARG_OF_PERICENTER><MEAN_ANOMALY>357.0641</MEAN_ANOMALY></meanElements><tleParameters><EPHEMERIS_TYPE>0</EPHEMERIS_TYPE><CLASSIFICATION_TYPE>U</CLASSIFICATION_TYPE><NORAD_CAT_ID>62801</NORAD_CAT_ID><ELEMENT_SET_NO>999</ELEMENT_SET_NO><REV_AT_EPOCH>4684</REV_AT_EPOCH><BSTAR>.28841E-3</BSTAR><MEAN_MOTION_DOT>.198E-5</MEAN_MOTION_DOT><MEAN_MOTION_DDOT>0</MEAN_MOTION_DDOT></tleParameters></data></segment></body></omm>
<omm id="CCSDS_OMM_VERS" version="2.0">
<header><CREATION_DATE/><ORIGINATOR/></header><body><segment><metadata><OBJECT_NAME>QIANFAN-72</OBJECT_NAME><OBJECT_ID>2025-016T</OBJECT_ID><CENTER_NAME>EARTH</CENTER_NAME><REF_FRAME>TEME</REF_FRAME><TIME_SYSTEM>UTC</TIME_SYSTEM><MEAN_ELEMENT_THEORY>SGP4</MEAN_ELEMENT_THEORY></metadata><data><meanElements><EPOCH>2025-12-09T18:19:57.560160</EPOCH><MEAN_MOTION>13.50983425</MEAN_MOTION><ECCENTRICITY>.0018745</ECCENTRICITY><INCLINATION>88.9758</INCLINATION><RA_OF_ASC_NODE>103.4079</RA_OF_ASC_NODE><ARG_OF_PERICENTER>9.5200</ARG_OF_PERICENTER><MEAN_ANOMALY>350.6302</MEAN_ANOMALY></meanElements><tleParameters><EPHEMERIS_TYPE>0</EPHEMERIS_TYPE><CLASSIFICATION_TYPE>U</CLASSIFICATION_TYPE><NORAD_CAT_ID>62802</NORAD_CAT_ID><ELEMENT_SET_NO>999</ELEMENT_SET_NO><REV_AT_EPOCH>4682</REV_AT_EPOCH><BSTAR>.30831E-3</BSTAR><MEAN_MOTION_DOT>.211E-5</MEAN_MOTION_DOT><MEAN_MOTION_DDOT>0</MEAN_MOTION_DDOT></tleParameters></data></segment></body></omm>

</ndm>
