QIANFAN-65              
1 62795U 25016L   25343.76796455  .00000206  00000+0  29975-3 0  9991
2 62795  88.9760 103.3658 0013333 358.5625   1.5486 13.50983288 46845
QIANFAN-66              
1 62796U 25016M   25343.79672990  .00000193  00000+0  28046-3 0  9995
2 62796  88.9780 103.3324 0014314 353.3187   6.7771 13.50976033 46893
QIANFAN-67              
1 62797U 25016N   25343.80099238  .00000185  00000+0  26837-3 0  9993
2 62797  88.9770 103.3578 0014477   0.5114 359.6049 13.50980177 46864
QIANFAN-68              
1 62798U 25016P   25343.79269226  .00000189  00000+0  27365-3 0  9999
2 62798  88.9774 103.4037 0014483 358.6593   1.4517 13.50982578 46842
QIANFAN-69              
1 62799U 25016Q   25343.80919242  .00000204  00000+0  29726-3 0  9993
2 62799  88.9752 103.2721 0015258 359.4777   0.6355 13.50985465 46884
QIANFAN-70              
1 62800U 25016R   25343.75153163  .00000201  00000+0  29349-3 0  9990
2 62800  88.9773 103.4159 0014610 349.7422  10.3428 13.50976303 46832
QIANFAN-71              
1 62801U 25016S   25343.82145126  .00000198  00000+0  28841-3 0  9990
2 62801  88.9767 103.3884 0015292   3.0600 357.0641 13.50983420 46842
QIANFAN-72              
1 62802U 25016T   25343.76386065  .00000211  00000+0  30831-3 0  9991
2 62802  88.9758 103.4079 0018745   9.5200 350.6302 13.50983425 46829
